MOLNIYA 1-80            
1 21118U 91012A   12351.16133044 -.00001589  00000-0  10000-3 0  2070
2 21118  61.5808  79.7640 7441772 272.3197  12.7693  2.00401404159984
MOLNIYA 3-40            
1 21196U 91022A   12352.38766461  .00001912  00000-0  46400-3 0  7175
2 21196  61.7220  58.8264 7474945 276.0259  11.5243  2.00659949159301
MOLNIYA 1-81            
1 21426U 91043A   12352.23973637  .00000021  00000-0  10000-3 0  8148
2 21426  62.2950  60.2793 7340162 277.7572  11.9843  2.00635983157564
MOLNIYA 3-41            
1 21706U 91065A   12351.92306539  .00001142  00000-0  27359-1 0   936
2 21706  63.4365 215.9084 7108259 285.1161  11.7167  2.04339366156034
MOLNIYA 3-42            
1 22178U 92067A   12352.03214641  .00052326  11562-6  19205-2 0  3990
2 22178  62.4765 346.9222 7400635 281.4623  10.9474  2.17039010148068
MOLNIYA 1-86            
1 22671U 93035A   12352.45405675  .00028956  00000-0  77633-3 0  3721
2 22671  62.6653 117.2469 5222221 296.2866  19.8673  5.36227510157865
MOLNIYA 3-45            
1 22729U 93049A   12352.47964330  .00001800  00000-0  22037-3 0  4694
2 22729  61.8976  92.6105 7461511 269.0275  13.5940  2.00831285141917
MOLNIYA 1-87            
1 22949U 93079A   12350.55169915 -.00001217  00000-0  47532-2 0  9913
2 22949  61.7274 224.1682 7306984 259.9978  18.1388  2.00376895139154
MOLNIYA 1-88            
1 23420U 94081A   12353.17224711  .00181804  16738-6  41622-3 0  5922
2 23420  62.3984  28.7470 7438370 280.3831  10.6691  2.14564959132363
MOLNIYA 3-47            
1 23642U 95042A   12352.61432440 -.00000079  00000-0 -36519-2 0   102
2 23642  61.8965 200.4453 7274712 263.7851  16.9554  2.00607338127216
MOLNIYA 1-90            
1 24960U 97054A   12351.72798632 -.00000902  00000-0  55673-3 0  4774
2 24960  62.0493 238.0573 7388127 262.2014  16.5989  2.04631844111810
MOLNIYA 1-91            
1 25485U 98054A   12353.19354330 -.00000297  00000-0  10000-3 0  8062
2 25485  63.2934  18.7424 7407695 254.1735  77.0755  2.00633168104188
MOLNIYA 3-50            
1 25847U 99036A   12351.92551822  .00000056  00000-0  10000-3 0  3875
2 25847  63.4108 128.4525 6992839 258.0441  22.1388  2.00580817 98504
MOLNIYA 3-51            
1 26867U 01030A   12353.20964606 -.00000787  00000-0  00000+0 0  2108
2 26867  63.7171  39.1082 7462901 254.6073  65.7768  2.00605561 83639
MOLNIYA 1-92            
1 27707U 03011A   12352.62826517  .00006837  00000-0  18335-2 0  3673
2 27707  64.2477  45.6007 7507032 244.0873  13.9136  2.01144956 71169
MOLNIYA 3-53            
1 27834U 03029A   12353.17780375 -.00000742  00000-0  00000+0 0  5528
2 27834  64.2602  46.1908 7501270 244.3004  30.4397  2.00827043 69606
MOLNIYA 1-93            
1 28163U 04005A   12353.10899144  .00000374  00000-0  10000-3 0   156
2 28163  64.7449 145.0988 7008016 253.9185 112.3654  2.00620293 64710
